start=new Date('2021-12-13T00:00:00.000Z').valueOf();
sats=[{"REV_AT_EPOCH":"368","FILE":"3238376","RA_OF_ASC_NODE":"347.5627","DECAY_DATE":null,"PERIOD":"91.545","RCS_SIZE":"LARGE","MEAN_ELEMENT_THEORY":"SGP4","BSTAR":"0.00243600000000","CENTER_NAME":"EARTH","NORAD_CAT_ID":"49454","MEAN_ANOMALY":"119.8544","MEAN_MOTION":"15.72990501","MEAN_MOTION_DDOT":"0.0000000000000","OBJECT_NAME":"STARLINK-3160","OBJECT_TYPE":"PAYLOAD","GP_ID":"191588805","TLE_LINE1":"1 49454U 21104AY  21346.91668981  .00352845  00000-0  24360-2 0  9992","ELEMENT_SET_NO":"999","SEMIMAJOR_AXIS":"6728.493","TLE_LINE2":"2 49454  53.2176 347.5627 0002516  31.8298 119.8544 15.72990501  3689","CLASSIFICATION_TYPE":"U","MEAN_MOTION_DOT":"0.00352845","PERIAPSIS":"348.665","COUNTRY_CODE":"US","ECCENTRICITY":"0.00025160","LAUNCH_DATE":"2021-11-13","EPOCH":"2021-12-12T22:00:01.999584","TIME_SYSTEM":"UTC","APOAPSIS":"352.050","OBJECT_ID":"2021-104AY","REF_FRAME":"TEME","INCLINATION":"53.2176","EPHEMERIS_TYPE":"0","ARG_OF_PERICENTER":"31.8298","SITE":"AFETR"},{"LAUNCH_DATE":"2021-11-13","ECCENTRICITY":"0.00021710","COUNTRY_CODE":"US","MEAN_MOTION_DOT":"0.00059123","PERIAPSIS":"348.323","ARG_OF_PERICENTER":"22.3214","SITE":"AFETR","INCLINATION":"53.2192","EPHEMERIS_TYPE":"0","OBJECT_ID":"2021-104AZ","REF_FRAME":"TEME","APOAPSIS":"351.245","TIME_SYSTEM":"UTC","EPOCH":"2021-12-12T22:00:01.999584","MEAN_MOTION":"15.73191653","MEAN_ANOMALY":"134.1732","CENTER_NAME":"EARTH","NORAD_CAT_ID":"49455","DECAY_DATE":null,"PERIOD":"91.534","RCS_SIZE":"LARGE","MEAN_ELEMENT_THEORY":"SGP4","BSTAR":"0.00042284000000","FILE":"3238376","RA_OF_ASC_NODE":"347.5577","REV_AT_EPOCH":"367","CLASSIFICATION_TYPE":"U","TLE_LINE2":"2 49455  53.2192 347.5577 0002171  22.3214 134.1732 15.73191653  3672","GP_ID":"191588989","SEMIMAJOR_AXIS":"6727.919","TLE_LINE1":"1 49455U 21104AZ  21346.91668981  .00059123  00000-0  42284-3 0  9992","ELEMENT_SET_NO":"999","OBJECT_TYPE":"PAYLOAD","MEAN_MOTION_DDOT":"0.0000000000000","OBJECT_NAME":"STARLINK-3145"},{"APOAPSIS":"351.569","OBJECT_ID":"2021-104BA","REF_FRAME":"TEME","EPOCH":"2021-12-12T22:00:01.999584","TIME_SYSTEM":"UTC","INCLINATION":"53.2177","EPHEMERIS_TYPE":"0","SITE":"AFETR","ARG_OF_PERICENTER":"25.3019","COUNTRY_CODE":"US","MEAN_MOTION_DOT":"-0.00233081","PERIAPSIS":"348.370","LAUNCH_DATE":"2021-11-13","ECCENTRICITY":"0.00023770","OBJECT_NAME":"STARLINK-3124","MEAN_MOTION_DDOT":"0.0000000000000","OBJECT_TYPE":"PAYLOAD","GP_ID":"191588068","ELEMENT_SET_NO":"999","TLE_LINE1":"1 49456U 21104BA  21346.91668981 -.00233081  00000-0 -17077-2 0  9993","SEMIMAJOR_AXIS":"6728.105","TLE_LINE2":"2 49456  53.2177 347.5567 0002377  25.3019 129.3663 15.73126576  3681","CLASSIFICATION_TYPE":"U","DECAY_DATE":null,"PERIOD":"91.537","RCS_SIZE":"LARGE","BSTAR":"-0.00170770000000","MEAN_ELEMENT_THEORY":"SGP4","CENTER_NAME":"EARTH","NORAD_CAT_ID":"49456","REV_AT_EPOCH":"368","FILE":"3238376","RA_OF_ASC_NODE":"347.5567","MEAN_MOTION":"15.73126576","MEAN_ANOMALY":"129.3663"},{"OBJECT_TYPE":"PAYLOAD","OBJECT_NAME":"STARLINK-3132","MEAN_MOTION_DDOT":"0.0000000000000","CLASSIFICATION_TYPE":"U","TLE_LINE2":"2 49457  53.2197 347.5590 0002323  30.5459 126.9031 15.73214734  3672","GP_ID":"191588252","TLE_LINE1":"1 49457U 21104BB  21346.91668981  .00008497  00000-0  64860-4 0  9997","ELEMENT_SET_NO":"999","SEMIMAJOR_AXIS":"6727.853","CENTER_NAME":"EARTH","NORAD_CAT_ID":"49457","PERIOD":"91.532","DECAY_DATE":null,"RCS_SIZE":"LARGE","BSTAR":"0.00006486000000","MEAN_ELEMENT_THEORY":"SGP4","FILE":"3238376","RA_OF_ASC_NODE":"347.5590","REV_AT_EPOCH":"367","MEAN_MOTION":"15.73214734","MEAN_ANOMALY":"126.9031","OBJECT_ID":"2021-104BB","REF_FRAME":"TEME","APOAPSIS":"351.281","TIME_SYSTEM":"UTC","EPOCH":"2021-12-12T22:00:01.999584","ARG_OF_PERICENTER":"30.5459","SITE":"AFETR","INCLINATION":"53.2197","EPHEMERIS_TYPE":"0","COUNTRY_CODE":"US","MEAN_MOTION_DOT":"0.00008497","PERIAPSIS":"348.155","LAUNCH_DATE":"2021-11-13","ECCENTRICITY":"0.00023230"},{"GP_ID":"191589168","SEMIMAJOR_AXIS":"6728.567","TLE_LINE1":"1 49458U 21104BC  21346.91668981  .00398606  00000-0  27393-2 0  9990","ELEMENT_SET_NO":"999","TLE_LINE2":"2 49458  53.2176 347.5553 0002434  38.0353 117.4082 15.72964388  3686","CLASSIFICATION_TYPE":"U","OBJECT_NAME":"STARLINK-3156","MEAN_MOTION_DDOT":"0.0000000000000","OBJECT_TYPE":"PAYLOAD","MEAN_ANOMALY":"117.4082","MEAN_MOTION":"15.72964388","REV_AT_EPOCH":"368","FILE":"3238376","RA_OF_ASC_NODE":"347.5553","RCS_SIZE":"LARGE","DECAY_DATE":null,"PERIOD":"91.547","BSTAR":"0.00273930000000","MEAN_ELEMENT_THEORY":"SGP4","CENTER_NAME":"EARTH","NORAD_CAT_ID":"49458","INCLINATION":"53.2176","EPHEMERIS_TYPE":"0","SITE":"AFETR","ARG_OF_PERICENTER":"38.0353","EPOCH":"2021-12-12T22:00:01.999584","TIME_SYSTEM":"UTC","APOAPSIS":"352.070","OBJECT_ID":"2021-104BC","REF_FRAME":"TEME","ECCENTRICITY":"0.00024340","LAUNCH_DATE":"2021-11-13","MEAN_MOTION_DOT":"0.00398606","PERIAPSIS":"348.794","COUNTRY_CODE":"US"},{"OBJECT_ID":"2021-104BD","REF_FRAME":"TEME","APOAPSIS":"351.476","TIME_SYSTEM":"UTC","EPOCH":"2021-12-12T22:00:01.999584","ARG_OF_PERICENTER":"31.5197","SITE":"AFETR","INCLINATION":"53.2192","EPHEMERIS_TYPE":"0","COUNTRY_CODE":"US","MEAN_MOTION_DOT":"0.00060905","PERIAPSIS":"348.223","LAUNCH_DATE":"2021-11-13","ECCENTRICITY":"0.00024170","OBJECT_TYPE":"PAYLOAD","MEAN_MOTION_DDOT":"0.0000000000000","OBJECT_NAME":"STARLINK-3141","TLE_LINE2":"2 49459  53.2192 347.5544 0002417  31.5197 126.8617 15.73168661  3678","CLASSIFICATION_TYPE":"U","GP_ID":"191589352","TLE_LINE1":"1 49459U 21104BD  21346.91668981  .00060905  00000-0  43578-3 0  9993","SEMIMAJOR_AXIS":"6727.985","ELEMENT_SET_NO":"999","CENTER_NAME":"EARTH","NORAD_CAT_ID":"49459","RCS_SIZE":"LARGE","DECAY_DATE":null,"PERIOD":"91.535","BSTAR":"0.00043578000000","MEAN_ELEMENT_THEORY":"SGP4","FILE":"3238376","RA_OF_ASC_NODE":"347.5544","REV_AT_EPOCH":"367","MEAN_MOTION":"15.73168661","MEAN_ANOMALY":"126.8617"},{"COUNTRY_CODE":"US","PERIAPSIS":"348.058","MEAN_MOTION_DOT":"-0.00035262","LAUNCH_DATE":"2021-11-13","ECCENTRICITY":"0.00024120","REF_FRAME":"TEME","OBJECT_ID":"2021-104BE","APOAPSIS":"351.303","TIME_SYSTEM":"UTC","EPOCH":"2021-12-12T22:00:01.999584","ARG_OF_PERICENTER":"23.7005","SITE":"AFETR","EPHEMERIS_TYPE":"0","INCLINATION":"53.2188","NORAD_CAT_ID":"49460","CENTER_NAME":"EARTH","BSTAR":"-0.00024753000000","MEAN_ELEMENT_THEORY":"SGP4","RCS_SIZE":"LARGE","DECAY_DATE":null,"PERIOD":"91.532","RA_OF_ASC_NODE":"347.5502","FILE":"3238189","REV_AT_EPOCH":"592","MEAN_MOTION":"15.73227910","MEAN_ANOMALY":"135.6105","OBJECT_TYPE":"PAYLOAD","OBJECT_NAME":"STARLINK-3140","MEAN_MOTION_DDOT":"0.0000000000000","TLE_LINE2":"2 49460  53.2188 347.5502 0002412  23.7005 135.6105 15.73227910  5928","CLASSIFICATION_TYPE":"U","SEMIMAJOR_AXIS":"6727.816","TLE_LINE1":"1 49460U 21104BE  21346.91668981 -.00035262  00000-0 -24753-3 0  9999","ELEMENT_SET_NO":"999","GP_ID":"191560537"},{"CLASSIFICATION_TYPE":"U","TLE_LINE2":"2 49724  53.2166 270.2512 0000797 326.3257 271.1521 15.40467108  1995","SEMIMAJOR_AXIS":"6822.867","TLE_LINE1":"1 49724U 21115A   21346.91668981 -.00029172  00000-0 -70216-3 0  9992","ELEMENT_SET_NO":"999","GP_ID":"191589383","OBJECT_TYPE":"PAYLOAD","MEAN_MOTION_DDOT":"0.0000000000000","OBJECT_NAME":"STARLINK-3219","MEAN_MOTION":"15.40467108","MEAN_ANOMALY":"271.1521","NORAD_CAT_ID":"49724","CENTER_NAME":"EARTH","MEAN_ELEMENT_THEORY":"SGP4","BSTAR":"-0.00070216000000","PERIOD":"93.478","DECAY_DATE":null,"RCS_SIZE":"LARGE","RA_OF_ASC_NODE":"270.2512","FILE":"3238376","REV_AT_EPOCH":"199","SITE":"AFETR","ARG_OF_PERICENTER":"326.3257","EPHEMERIS_TYPE":"0","INCLINATION":"53.2166","REF_FRAME":"TEME","OBJECT_ID":"2021-115A","APOAPSIS":"445.276","TIME_SYSTEM":"UTC","EPOCH":"2021-12-12T22:00:01.999584","LAUNCH_DATE":"2021-12-02","ECCENTRICITY":"0.00007970","COUNTRY_CODE":"US","PERIAPSIS":"444.188","MEAN_MOTION_DOT":"-0.00029172"},{"EPOCH":"2021-12-12T22:00:01.999584","TIME_SYSTEM":"UTC","APOAPSIS":"445.672","REF_FRAME":"TEME","OBJECT_ID":"2021-115B","EPHEMERIS_TYPE":"0","INCLINATION":"53.2164","SITE":"AFETR","ARG_OF_PERICENTER":"64.7487","PERIAPSIS":"443.631","MEAN_MOTION_DOT":"-0.00044777","COUNTRY_CODE":"US","ECCENTRICITY":"0.00014960","LAUNCH_DATE":"2021-12-02","OBJECT_NAME":"STARLINK-3218","MEAN_MOTION_DDOT":"0.0000000000000","OBJECT_TYPE":"PAYLOAD","TLE_LINE1":"1 49725U 21115B   21346.91668981 -.00044777  00000-0 -10842-2 0  9999","SEMIMAJOR_AXIS":"6822.787","ELEMENT_SET_NO":"999","GP_ID":"191588475","TLE_LINE2":"2 49725  53.2164 270.2552 0001496  64.7487 170.5575 15.40494191  1996","CLASSIFICATION_TYPE":"U","REV_AT_EPOCH":"199","RA_OF_ASC_NODE":"270.2552","FILE":"3238376","BSTAR":"-0.00108420000000","MEAN_ELEMENT_THEORY":"SGP4","DECAY_DATE":null,"RCS_SIZE":"LARGE","PERIOD":"93.476","NORAD_CAT_ID":"49725","CENTER_NAME":"EARTH","MEAN_ANOMALY":"170.5575","MEAN_MOTION":"15.40494191"},{"COUNTRY_CODE":"US","MEAN_MOTION_DOT":"0.00183108","PERIAPSIS":"444.077","LAUNCH_DATE":"2021-12-02","ECCENTRICITY":"0.00016870","APOAPSIS":"446.379","OBJECT_ID":"2021-115C","REF_FRAME":"TEME","EPOCH":"2021-12-12T22:00:01.999584","TIME_SYSTEM":"UTC","INCLINATION":"53.2168","EPHEMERIS_TYPE":"0","SITE":"AFETR","ARG_OF_PERICENTER":"301.5513","DECAY_DATE":null,"PERIOD":"93.488","RCS_SIZE":"LARGE","MEAN_ELEMENT_THEORY":"SGP4","BSTAR":"0.00437990000000","CENTER_NAME":"EARTH","NORAD_CAT_ID":"49726","REV_AT_EPOCH":"199","FILE":"3238376","RA_OF_ASC_NODE":"270.2503","MEAN_MOTION":"15.40299076","MEAN_ANOMALY":"294.9020","MEAN_MOTION_DDOT":"0.0000000000000","OBJECT_NAME":"STARLINK-3237","OBJECT_TYPE":"PAYLOAD","GP_ID":"191588659","TLE_LINE1":"1 49726U 21115C   21346.91668981  .00183108  00000-0  43799-2 0  9997","SEMIMAJOR_AXIS":"6823.363","ELEMENT_SET_NO":"999","CLASSIFICATION_TYPE":"U","TLE_LINE2":"2 49726  53.2168 270.2503 0001687 301.5513 294.9020 15.40299076  1992"}];
